HIMAWARI-8              
1 40267U 14060A   24073.90874132 -.00000286  00000+0  00000+0 0  9995
2 40267   0.0230 181.2547 0001133 146.6712 311.8869  1.00271838 34484
